[{"OBJECT_NAME":"STARLINK-3953","OBJECT_ID":"2022-051AC","EPOCH":"2026-03-09T11:08:50.519904","MEAN_MOTION":15.08832064,"ECCENTRICITY":0.00012011,"INCLINATION":53.2178,"RA_OF_ASC_NODE":120.3144,"ARG_OF_PERICENTER":83.1983,"MEAN_ANOMALY":276.9145,"EPHEMERIS_TYPE":0,"CLASSIFICATION_TYPE":"U","NORAD_CAT_ID":52559,"ELEMENT_SET_NO":999,"REV_AT_EPOCH":21154,"BSTAR":8.6279054e-5,"MEAN_MOTION_DOT":1.085e-5,"MEAN_MOTION_DDOT":0},{"OBJECT_NAME":"UMBRA-07","OBJECT_ID":"2023-174AT","EPOCH":"2026-03-09T17:14:20.565312","MEAN_MOTION":15.07174057,"ECCENTRICITY":0.00041314,"INCLINATION":97.3902,"RA_OF_ASC_NODE":128.3323,"ARG_OF_PERICENTER":75.5473,"MEAN_ANOMALY":284.6213,"EPHEMERIS_TYPE":0,"CLASSIFICATION_TYPE":"U","NORAD_CAT_ID":58297,"ELEMENT_SET_NO":999,"REV_AT_EPOCH":12842,"BSTAR":0.0008461425,"MEAN_MOTION_DOT":0.00012685,"MEAN_MOTION_DDOT":0}]
